STARLINK-2116
1 17724C 21017C   21326.12482637 -.00001399  00000-0 -93785-4 0  3266
2 17724  53.0510 333.1740 0001777  54.5127 232.6164 15.06390986    19
